GLOBALSTAR M035 [-]     
1 25851U 99037A   23268.60208078 -.00000078  00000+0 -55668-3 0  9990
2 25851  51.9993  21.2052 0013977  42.7397 330.4736 11.04526391 26589
GLOBALSTAR M032 [-]     
1 25852U 99037B   23268.61476060 -.00000077  00000+0 -34528-3 0  9991
2 25852  51.9928 249.8866 0007688 183.6030 176.4716 11.19044873 64191
GLOBALSTAR M051 [-]     
1 25853U 99037C   23268.87271811 -.00000040  00000+0  78541-3 0  9999
2 25853  51.9770 121.4289 0001683 138.4108 221.6831 11.42192259 60368
GLOBALSTAR M030 [-]     
1 25854U 99037D   23269.10635487 -.00000018  00000+0  12067-2 0  9995
2 25854  51.9899 327.0317 0004071 359.3337   0.7474 11.55091904 77332
GLOBALSTAR M048 [-]     
1 25872U 99041A   23268.59947275 -.00000068  00000+0  65096-4 0  9990
2 25872  51.9400  32.7309 0013555 170.0198 202.7416 11.33839639 53459
GLOBALSTAR M026 [-]     
1 25873U 99041B   23268.87383458 -.00000046  00000+0  67386-3 0  9998
2 25873  51.9989 145.2108 0001268 332.4494 110.2266 11.06827832 78691
GLOBALSTAR M043 [-]     
1 25874U 99041C   23268.90277493 -.00000031  00000+0  10990-2 0  9996
2 25874  51.9380 114.5396 0012940 320.1011 143.2622 11.25674991 51895
GLOBALSTAR M028 [-]     
1 25875U 99041D   23268.78068461 -.00000041  00000+0  38628-3 0  9996
2 25875  51.9612 272.7561 0063605 142.3211 218.2129 12.50541481111309
